OBJECT_NAME,OBJECT_ID,EPOCH,MEAN_MOTION,ECCENTRICITY,INCLINATION,RA_OF_ASC_NODE,ARG_OF_PERICENTER,MEAN_ANOMALY,EPHEMERIS_TYPE,CLASSIFICATION_TYPE,NORAD_CAT_ID,ELEMENT_SET_NO,REV_AT_EPOCH,BSTAR,MEAN_MOTION_DOT,MEAN_MOTION_DDOT
TANAGER-1,2024-149AR,2026-06-24T03:43:31.777824,15.44790825,.00041531,97.2460,269.3892,272.4125,87.6649,0,U,60507,999,10411,.23583259E-4,.1017E-4,0
EAGLEEYE,2024-149AS,2026-06-24T04:11:31.534656,15.72098107,.00048125,97.3718,268.9035,219.5509,140.5404,0,U,60508,999,10403,.73895525E-3,.97649E-3,0
FLOCK 4BE-29,2024-149AT,2026-06-24T04:16:44.864256,15.44341811,.00017116,97.3808,261.1566,241.9444,118.1632,0,U,60509,999,10349,.33741383E-3,.15479E-3,0
TRANSPORTER-11 OBJECT AU,2024-149AU,2026-06-24T04:53:50.190432,15.40390659,.00024166,97.3728,258.9810,248.4862,111.6127,0,U,60510,999,10339,.32464068E-3,.13043E-3,0
FLOCK 4BE-2,2024-149AV,2026-06-24T05:04:05.536416,15.53394306,.00039842,97.3831,262.7097,227.4965,132.5952,0,U,60511,999,10359,.85879688E-3,.5452E-3,0
FLOCK 4BE-13,2024-149AW,2026-06-24T03:56:57.200352,15.42051523,.00033677,97.3718,259.6488,227.1393,132.9572,0,U,60512,999,10344,.31194579E-3,.13241E-3,0
FLOCK 4BE-27,2024-149AX,2026-06-24T04:07:36.568128,15.34551042,.00023154,97.3824,257.0266,275.1447,84.9532,0,U,60513,999,10321,.25440294E-3,.8437E-4,0
FLOCK 4BE-9,2024-149AY,2026-06-24T04:02:46.434336,15.40974326,.00017006,97.3791,259.5083,246.7844,113.3223,0,U,60514,999,10339,.35203392E-3,.14428E-3,0
FLOCK 4BE-6,2024-149BA,2026-06-24T04:52:11.976960,15.39739947,.00023464,97.3791,258.8880,252.2916,107.8073,0,U,60516,999,10335,.31878632E-3,.12533E-3,0
FLOCK 4BE-14,2024-149BB,2026-06-24T04:19:25.989024,15.41183364,.0003373,97.3694,259.0075,253.7900,106.2975,0,U,60517,999,10340,.36940881E-3,.15253E-3,0
FLOCK 4BE-1,2024-149BC,2026-06-24T04:31:50.588544,15.42797944,.00030777,97.3779,260.3187,251.8606,108.2307,0,U,60518,999,10345,.35707917E-3,.15557E-3,0
FLOCK 4BE-28,2024-149BD,2026-06-24T04:37:12.412992,15.45120464,.00032024,97.3745,261.0686,246.5338,113.5574,0,U,60519,999,10352,.34370977E-3,.16196E-3,0
IPERDRONE.0,2024-149BE,2026-06-24T04:51:53.883936,15.67594868,.00041463,97.3775,268.7649,208.4723,151.6312,0,U,60520,999,10401,.64161057E-3,.70155E-3,0
TRANSPORTER-11 OBJECT BF,2024-149BF,2026-06-23T05:58:32.088864,15.87556925,.00067039,97.3741,270.6699,228.1639,131.9061,0,U,60521,999,10404,.95543444E-3,.259315E-2,0
CONNECTA IOT-2,2024-149BG,2026-06-24T04:56:02.143104,15.24024455,.00050086,97.3839,253.2448,307.7908,52.2875,0,U,60522,999,10296,.15345331E-3,.3649E-4,0
CONNECTA IOT-4,2024-149BJ,2026-06-24T05:09:03.570624,15.42367378,.00043101,97.3798,259.6684,251.6792,108.3987,0,U,60524,999,10341,.41194001E-3,.17711E-3,0
ORESAT0.5,2024-149BK,2026-06-24T04:14:50.138016,15.45308530,.00044656,97.3720,261.2848,240.1680,119.9125,0,U,60525,999,10355,.37457619E-3,.17779E-3,0
DEIMOS,2024-149BL,2026-06-24T05:06:50.164704,15.44439271,.00043331,97.3780,261.4583,248.1283,111.9505,0,U,60526,999,10353,.36307657E-3,.16725E-3,0
CUAVA-2,2024-149BM,2026-06-24T04:23:54.093408,15.36253923,.00052487,97.3726,256.7145,262.2829,97.7819,0,U,60527,999,10324,.30865431E-3,.10833E-3,0
ERNST,2024-149BN,2026-06-24T04:34:27.786432,15.39364127,.00044547,97.3805,258.9631,264.1515,95.9223,0,U,60528,999,10335,.31417293E-3,.12201E-3,0
TORO,2024-149BQ,2026-06-24T04:39:16.561152,14.96442592,.00011326,97.6782,249.7312,85.2891,274.8460,0,U,60530,999,10100,.10896394E-3,.1179E-4,0
HYPSO-2,2024-149BR,2026-06-24T05:03:22.340736,14.98815348,.00005925,97.6810,251.3683,125.6446,234.4832,0,U,60531,999,10110,.1795388E-3,.2106E-4,0
LEMU NGE,2024-149BS,2026-06-24T05:06:52.643520,14.94977024,.00016534,97.6841,250.0307,59.4861,300.6523,0,U,60532,999,10100,.1862487E-3,.1979E-4,0
LEMUR-2-STELLA,2024-149BT,2026-06-24T03:55:32.189664,15.11934480,.00014843,97.6735,257.6491,95.7079,264.4320,0,U,60533,999,10155,.575769E-3,.9808E-4,0
SATELIOT_2,2024-149BU,2026-06-24T04:21:11.181888,14.96384755,.0001909,97.6831,250.0100,84.3539,275.7900,0,U,60534,999,10101,.10263071E-3,.1105E-4,0
NIGHTJAR,2024-149BV,2026-06-24T04:49:31.672992,14.99045098,.00007999,97.6831,251.8100,101.9367,258.1946,0,U,60535,999,14392,.20022524E-3,.237E-4,0
LEMUR-2-MARHISYAM,2024-149BW,2026-06-24T05:06:11.675232,15.11376723,.00034587,97.6882,258.1549,104.9077,255.2536,0,U,60536,999,10154,.50589079E-3,.8476E-4,0
SATELIOT_4,2024-149BX,2026-06-24T04:34:43.770432,14.96686530,.00025687,97.6734,249.5421,42.0687,318.0732,0,U,60537,999,10102,.96264907E-4,.1042E-4,0
PICO-02A021,2024-149BY,2026-06-23T22:56:23.945280,15.03310536,.00044912,97.6764,253.7292,12.3695,347.7640,0,U,60538,999,10075,.32416919E-3,.4338E-4,0
ICEYE-X43,2024-149BZ,2026-06-24T04:02:10.311360,14.99661997,.0008211,97.6805,252.0374,64.6464,295.5609,0,U,60539,999,10116,.28978783E-3,.3515E-4,0
